[{"OBJECT_NAME":"QIANFAN-53","OBJECT_ID":"2024-232T","EPOCH":"2026-03-09T22:56:18.814848","MEAN_MOTION":13.51004244,"ECCENTRICITY":0.00126691,"INCLINATION":89.0069,"RA_OF_ASC_NODE":32.4163,"ARG_OF_PERICENTER":308.0126,"MEAN_ANOMALY":51.9881,"EPHEMERIS_TYPE":0,"CLASSIFICATION_TYPE":"U","NORAD_CAT_ID":62254,"ELEMENT_SET_NO":999,"REV_AT_EPOCH":7968,"BSTAR":0.00014932043,"MEAN_MOTION_DOT":1.08e-6,"MEAN_MOTION_DDOT":0},{"OBJECT_NAME":"THORAD AGENA D DEB","OBJECT_ID":"1970-025DY","EPOCH":"2026-03-09T09:32:29.179680","MEAN_MOTION":13.55626344,"ECCENTRICITY":0.00341038,"INCLINATION":99.9735,"RA_OF_ASC_NODE":131.7915,"ARG_OF_PERICENTER":307.9766,"MEAN_ANOMALY":113.6164,"EPHEMERIS_TYPE":0,"CLASSIFICATION_TYPE":"U","NORAD_CAT_ID":4778,"ELEMENT_SET_NO":999,"REV_AT_EPOCH":75790,"BSTAR":0.00034221,"MEAN_MOTION_DOT":1.92e-6,"MEAN_MOTION_DDOT":0}]
